{
"type": "FeatureCollection",
"name": "localidades_TdFuego",
"crs": { "type": "name", "properties": { "name": "urn:ogc:def:crs:OGC:1.3:CRS84" } },
"features": [
{ "type": "Feature", "properties": { "id_loc": 1, "cod_ase": "94007010", "fna": "Río Grande", "lat_gd": "-53.786326", "long_gd": "-67.696328" }, "geometry": { "type": "MultiPoint", "coordinates": [ [ -67.69632814, -53.78632609 ] ] } },
{ "type": "Feature", "properties": { "id_loc": 2, "cod_ase": "94007020", "fna": "Tolhuin", "lat_gd": "-54.511439", "long_gd": "-67.195172" }, "geometry": { "type": "MultiPoint", "coordinates": [ [ -67.19517198, -54.51143946 ] ] } },
{ "type": "Feature", "properties": { "id_loc": 3, "cod_ase": "94014020", "fna": "Ushuaia", "lat_gd": "-54.807404", "long_gd": "-68.303757" }, "geometry": { "type": "MultiPoint", "coordinates": [ [ -68.30375718, -54.80740398 ] ] } }
]
}
